start=new Date('2022-10-20T00:00:00.000Z').valueOf();
sats=[{"GP_ID":"215618458","BSTAR":"0.00004981900000","NORAD_CAT_ID":"46372","CLASSIFICATION_TYPE":"U","COUNTRY_CODE":"US","ARG_OF_PERICENTER":"102.6813","MEAN_ELEMENT_THEORY":"SGP4","RA_OF_ASC_NODE":"169.2412","TLE_LINE1":"1 46372U 20062AZ  22292.79679933  .00000461  00000-0  49819-4 0  9998","SITE":"AFETR","RCS_SIZE":"LARGE","EPOCH":"2022-10-19T19:07:23.462112","EPHEMERIS_TYPE":"0","ECCENTRICITY":"0.00014870","INCLINATION":"53.0546","REV_AT_EPOCH":"11788","SEMIMAJOR_AXIS":"6925.356","DECAY_DATE":null,"TLE_LINE2":"2 46372  53.0546 169.2412 0001487 102.6813 257.4343 15.06397651117889","PERIAPSIS":"546.191","PERIOD":"95.592","MEAN_MOTION_DDOT":"0.0000000000000","MEAN_MOTION_DOT":"0.00000461","OBJECT_NAME":"STARLINK-1689","MEAN_ANOMALY":"257.4343","APOAPSIS":"548.251","OBJECT_ID":"2020-062AZ","TIME_SYSTEM":"UTC","MEAN_MOTION":"15.06397651","CENTER_NAME":"EARTH","REF_FRAME":"TEME","OBJECT_TYPE":"PAYLOAD","FILE":"3623738","LAUNCH_DATE":"2020-09-03","ELEMENT_SET_NO":"999"},{"GP_ID":"215618708","BSTAR":"-0.00004745400000","CLASSIFICATION_TYPE":"U","NORAD_CAT_ID":"46374","ARG_OF_PERICENTER":"118.4330","COUNTRY_CODE":"US","TLE_LINE1":"1 46374U 20062BB  22292.81060674 -.00000988  00000-0 -47454-4 0  9998","RA_OF_ASC_NODE":"99.1851","MEAN_ELEMENT_THEORY":"SGP4","SITE":"AFETR","RCS_SIZE":"LARGE","EPOCH":"2022-10-19T19:27:16.422336","ECCENTRICITY":"0.00015490","EPHEMERIS_TYPE":"0","REV_AT_EPOCH":"11886","SEMIMAJOR_AXIS":"6925.338","DECAY_DATE":null,"INCLINATION":"53.0540","PERIOD":"95.592","PERIAPSIS":"546.130","TLE_LINE2":"2 46374  53.0540  99.1851 0001549 118.4330 241.6815 15.06403460118865","MEAN_MOTION_DDOT":"0.0000000000000","MEAN_MOTION_DOT":"-0.00000988","APOAPSIS":"548.276","OBJECT_ID":"2020-062BB","OBJECT_NAME":"STARLINK-1711","MEAN_ANOMALY":"241.6815","MEAN_MOTION":"15.06403460","TIME_SYSTEM":"UTC","OBJECT_TYPE":"PAYLOAD","REF_FRAME":"TEME","FILE":"3623738","CENTER_NAME":"EARTH","ELEMENT_SET_NO":"999","LAUNCH_DATE":"2020-09-03"},{"EPOCH":"2022-10-19T16:36:46.941408","EPHEMERIS_TYPE":"0","ECCENTRICITY":"0.00013580","REV_AT_EPOCH":"11849","DECAY_DATE":null,"SEMIMAJOR_AXIS":"6925.333","INCLINATION":"53.0529","NORAD_CAT_ID":"46375","CLASSIFICATION_TYPE":"U","COUNTRY_CODE":"US","ARG_OF_PERICENTER":"97.1108","GP_ID":"215618960","BSTAR":"0.00025874000000","SITE":"AFETR","RCS_SIZE":"LARGE","TLE_LINE1":"1 46375U 20062BC  22292.69220997  .00003575  00000-0  25874-3 0  9995","MEAN_ELEMENT_THEORY":"SGP4","RA_OF_ASC_NODE":"124.7046","MEAN_MOTION":"15.06404977","TIME_SYSTEM":"UTC","ELEMENT_SET_NO":"999","LAUNCH_DATE":"2020-09-03","OBJECT_TYPE":"PAYLOAD","REF_FRAME":"TEME","FILE":"3623738","CENTER_NAME":"EARTH","MEAN_MOTION_DDOT":"0.0000000000000","PERIOD":"95.592","PERIAPSIS":"546.258","TLE_LINE2":"2 46375  53.0529 124.7046 0001358  97.1108 263.0036 15.06404977118494","OBJECT_ID":"2020-062BC","APOAPSIS":"548.139","OBJECT_NAME":"STARLINK-1724","MEAN_ANOMALY":"263.0036","MEAN_MOTION_DOT":"0.00003575"},{"INCLINATION":"53.0540","SEMIMAJOR_AXIS":"6925.373","DECAY_DATE":null,"REV_AT_EPOCH":"11848","EPHEMERIS_TYPE":"0","ECCENTRICITY":"0.00013210","EPOCH":"2022-10-19T15:22:28.732512","RA_OF_ASC_NODE":"124.9532","MEAN_ELEMENT_THEORY":"SGP4","TLE_LINE1":"1 46376U 20062BD  22292.64061033  .00000303  00000-0  39256-4 0  9991","RCS_SIZE":"LARGE","SITE":"AFETR","GP_ID":"215619705","BSTAR":"0.00003925600000","ARG_OF_PERICENTER":"124.8594","COUNTRY_CODE":"US","CLASSIFICATION_TYPE":"U","NORAD_CAT_ID":"46376","CENTER_NAME":"EARTH","FILE":"3623738","OBJECT_TYPE":"PAYLOAD","REF_FRAME":"TEME","LAUNCH_DATE":"2020-09-03","ELEMENT_SET_NO":"999","TIME_SYSTEM":"UTC","MEAN_MOTION":"15.06391934","MEAN_MOTION_DOT":"0.00000303","MEAN_ANOMALY":"235.2519","OBJECT_NAME":"STARLINK-1742","APOAPSIS":"548.153","OBJECT_ID":"2020-062BD","TLE_LINE2":"2 46376  53.0540 124.9532 0001321 124.8594 235.2519 15.06391934118481","PERIAPSIS":"546.323","PERIOD":"95.593","MEAN_MOTION_DDOT":"0.0000000000000"},{"MEAN_ANOMALY":"258.9344","OBJECT_NAME":"STARLINK-1758","APOAPSIS":"548.226","OBJECT_ID":"2020-062BH","MEAN_MOTION_DOT":"0.00001435","MEAN_MOTION_DDOT":"0.0000000000000","TLE_LINE2":"2 46380  53.0530 149.8134 0001418 101.1804 258.9344 15.06389912118142","PERIOD":"95.593","PERIAPSIS":"546.262","LAUNCH_DATE":"2020-09-03","ELEMENT_SET_NO":"999","CENTER_NAME":"EARTH","FILE":"3623738","OBJECT_TYPE":"PAYLOAD","REF_FRAME":"TEME","TIME_SYSTEM":"UTC","MEAN_MOTION":"15.06389912","RCS_SIZE":"LARGE","SITE":"AFETR","RA_OF_ASC_NODE":"149.8134","MEAN_ELEMENT_THEORY":"SGP4","TLE_LINE1":"1 46380U 20062BH  22292.67332518  .00001435  00000-0  11525-3 0  9993","ARG_OF_PERICENTER":"101.1804","COUNTRY_CODE":"US","CLASSIFICATION_TYPE":"U","NORAD_CAT_ID":"46380","BSTAR":"0.00011525000000","GP_ID":"215617959","INCLINATION":"53.0530","SEMIMAJOR_AXIS":"6925.379","DECAY_DATE":null,"REV_AT_EPOCH":"11814","ECCENTRICITY":"0.00014180","EPHEMERIS_TYPE":"0","EPOCH":"2022-10-19T16:09:35.295552"},{"MEAN_MOTION_DOT":"0.00001780","MEAN_ANOMALY":"280.0008","OBJECT_NAME":"STARLINK-1769","APOAPSIS":"548.201","OBJECT_ID":"2020-062BK","TLE_LINE2":"2 46382  53.0542 124.8967 0001434  80.1142 280.0008 15.06401860118491","PERIAPSIS":"546.215","PERIOD":"95.592","MEAN_MOTION_DDOT":"0.0000000000000","CENTER_NAME":"EARTH","FILE":"3623738","REF_FRAME":"TEME","OBJECT_TYPE":"PAYLOAD","LAUNCH_DATE":"2020-09-03","ELEMENT_SET_NO":"999","TIME_SYSTEM":"UTC","MEAN_MOTION":"15.06401860","RA_OF_ASC_NODE":"124.8967","MEAN_ELEMENT_THEORY":"SGP4","TLE_LINE1":"1 46382U 20062BK  22292.65534518  .00001780  00000-0  13834-3 0  9995","RCS_SIZE":"LARGE","SITE":"AFETR","GP_ID":"215618209","BSTAR":"0.00013834000000","ARG_OF_PERICENTER":"80.1142","COUNTRY_CODE":"US","CLASSIFICATION_TYPE":"U","NORAD_CAT_ID":"46382","INCLINATION":"53.0542","SEMIMAJOR_AXIS":"6925.343","DECAY_DATE":null,"REV_AT_EPOCH":"11849","EPHEMERIS_TYPE":"0","ECCENTRICITY":"0.00014340","EPOCH":"2022-10-19T15:43:41.823552"},{"MEAN_MOTION":"15.06391786","TIME_SYSTEM":"UTC","FILE":"3623738","OBJECT_TYPE":"PAYLOAD","REF_FRAME":"TEME","CENTER_NAME":"EARTH","ELEMENT_SET_NO":"999","LAUNCH_DATE":"2020-09-03","PERIAPSIS":"546.293","PERIOD":"95.593","TLE_LINE2":"2 46383  53.0535 168.7642 0001366  82.5617 277.5527 15.06391786117893","MEAN_MOTION_DDOT":"0.0000000000000","MEAN_MOTION_DOT":"0.00000694","OBJECT_ID":"2020-062BL","APOAPSIS":"548.185","MEAN_ANOMALY":"277.5527","OBJECT_NAME":"STARLINK-1770","EPHEMERIS_TYPE":"0","ECCENTRICITY":"0.00013660","EPOCH":"2022-10-19T21:46:36.950304","DECAY_DATE":null,"SEMIMAJOR_AXIS":"6925.374","REV_AT_EPOCH":"11789","INCLINATION":"53.0535","GP_ID":"215619459","BSTAR":"0.00006547300000","COUNTRY_CODE":"US","ARG_OF_PERICENTER":"82.5617","CLASSIFICATION_TYPE":"U","NORAD_CAT_ID":"46383","TLE_LINE1":"1 46383U 20062BL  22292.90737211  .00000694  00000-0  65473-4 0  9999","MEAN_ELEMENT_THEORY":"SGP4","RA_OF_ASC_NODE":"168.7642","RCS_SIZE":"LARGE","SITE":"AFETR"},{"TIME_SYSTEM":"UTC","MEAN_MOTION":"15.06398568","CENTER_NAME":"EARTH","REF_FRAME":"TEME","OBJECT_TYPE":"PAYLOAD","FILE":"3623738","LAUNCH_DATE":"2020-09-03","ELEMENT_SET_NO":"999","TLE_LINE2":"2 46384  53.0531 168.7316 0001413 112.2747 247.8392 15.06398568117891","PERIOD":"95.592","PERIAPSIS":"546.239","MEAN_MOTION_DDOT":"0.0000000000000","MEAN_MOTION_DOT":"0.00002562","OBJECT_NAME":"STARLINK-1771","MEAN_ANOMALY":"247.8392","APOAPSIS":"548.196","OBJECT_ID":"2020-062BM","EPOCH":"2022-10-19T21:51:55.083744","ECCENTRICITY":"0.00014130","EPHEMERIS_TYPE":"0","INCLINATION":"53.0531","REV_AT_EPOCH":"11789","DECAY_DATE":null,"SEMIMAJOR_AXIS":"6925.353","BSTAR":"0.00019083000000","GP_ID":"215619207","CLASSIFICATION_TYPE":"U","NORAD_CAT_ID":"46384","ARG_OF_PERICENTER":"112.2747","COUNTRY_CODE":"US","MEAN_ELEMENT_THEORY":"SGP4","RA_OF_ASC_NODE":"168.7316","TLE_LINE1":"1 46384U 20062BM  22292.91105421  .00002562  00000-0  19083-3 0  9994","SITE":"AFETR","RCS_SIZE":"LARGE"},{"INCLINATION":"53.0562","DECAY_DATE":null,"SEMIMAJOR_AXIS":"6925.351","REV_AT_EPOCH":"11305","ECCENTRICITY":"0.00020400","EPHEMERIS_TYPE":"0","EPOCH":"2022-10-19T12:18:40.969152","RCS_SIZE":"LARGE","SITE":"AFETR","MEAN_ELEMENT_THEORY":"SGP4","RA_OF_ASC_NODE":"330.5247","TLE_LINE1":"1 46532U 20070A   22292.51297418  .00000557  00000-0  56314-4 0  9993","ARG_OF_PERICENTER":"43.4304","COUNTRY_CODE":"US","CLASSIFICATION_TYPE":"U","NORAD_CAT_ID":"46532","BSTAR":"0.00005631400000","GP_ID":"215592968","LAUNCH_DATE":"2020-10-06","ELEMENT_SET_NO":"999","CENTER_NAME":"EARTH","FILE":"3623453","OBJECT_TYPE":"PAYLOAD","REF_FRAME":"TEME","TIME_SYSTEM":"UTC","MEAN_MOTION":"15.06399325","MEAN_ANOMALY":"316.6845","OBJECT_NAME":"STARLINK-1644","APOAPSIS":"548.628","OBJECT_ID":"2020-070A","MEAN_MOTION_DOT":"0.00000557","MEAN_MOTION_DDOT":"0.0000000000000","TLE_LINE2":"2 46532  53.0562 330.5247 0002040  43.4304 316.6845 15.06399325113057","PERIOD":"95.592","PERIAPSIS":"545.803"},{"TLE_LINE2":"2 46533  53.0558 330.4635 0002273  40.7205 319.3953 15.06401465113050","PERIAPSIS":"545.635","PERIOD":"95.592","MEAN_MOTION_DDOT":"0.0000000000000","MEAN_MOTION_DOT":"0.00000861","MEAN_ANOMALY":"319.3953","OBJECT_NAME":"STARLINK-1648","APOAPSIS":"548.783","OBJECT_ID":"2020-070B","TIME_SYSTEM":"UTC","MEAN_MOTION":"15.06401465","CENTER_NAME":"EARTH","FILE":"3623453","OBJECT_TYPE":"PAYLOAD","REF_FRAME":"TEME","LAUNCH_DATE":"2020-10-06","ELEMENT_SET_NO":"999","GP_ID":"215592971","BSTAR":"0.00007673200000","ARG_OF_PERICENTER":"40.7205","COUNTRY_CODE":"US","NORAD_CAT_ID":"46533","CLASSIFICATION_TYPE":"U","MEAN_ELEMENT_THEORY":"SGP4","RA_OF_ASC_NODE":"330.4635","TLE_LINE1":"1 46533U 20070B   22292.52403163  .00000861  00000-0  76732-4 0  9995","RCS_SIZE":"LARGE","SITE":"AFETR","EPHEMERIS_TYPE":"0","ECCENTRICITY":"0.00022730","EPOCH":"2022-10-19T12:34:36.332832","INCLINATION":"53.0558","SEMIMAJOR_AXIS":"6925.344","DECAY_DATE":null,"REV_AT_EPOCH":"11305"}];
